[{"OBJECT_NAME":"STARLINK-3106","OBJECT_ID":"2021-082AL","EPOCH":"2026-03-09T23:20:17.340288","MEAN_MOTION":14.98331002,"ECCENTRICITY":0.00026012,"INCLINATION":69.9978,"RA_OF_ASC_NODE":273.7374,"ARG_OF_PERICENTER":271.0782,"MEAN_ANOMALY":89.0079,"EPHEMERIS_TYPE":0,"CLASSIFICATION_TYPE":"U","NORAD_CAT_ID":49164,"ELEMENT_SET_NO":999,"REV_AT_EPOCH":24767,"BSTAR":-7.967498e-6,"MEAN_MOTION_DOT":-1.88e-6,"MEAN_MOTION_DDOT":0},{"OBJECT_NAME":"SL-16 DEB","OBJECT_ID":"1992-093LA","EPOCH":"2026-02-20T04:21:44.148672","MEAN_MOTION":14.94798833,"ECCENTRICITY":0.00217312,"INCLINATION":71.2188,"RA_OF_ASC_NODE":0.2564,"ARG_OF_PERICENTER":24.1632,"MEAN_ANOMALY":336.0549,"EPHEMERIS_TYPE":0,"CLASSIFICATION_TYPE":"U","NORAD_CAT_ID":39848,"ELEMENT_SET_NO":999,"REV_AT_EPOCH":60757,"BSTAR":0.0046757079,"MEAN_MOTION_DOT":0.00051467,"MEAN_MOTION_DDOT":0}]
